start=new Date('2022-12-16T00:00:00.000Z').valueOf();
sats=[{"REF_FRAME":"TEME","NORAD_CAT_ID":"52576","CENTER_NAME":"EARTH","COUNTRY_CODE":"US","OBJECT_TYPE":"PAYLOAD","GP_ID":"220529416","TLE_LINE2":"2 52576  53.2187  15.7970 0002311  31.2475 328.8654 15.08839894 33468","MEAN_MOTION_DOT":"0.00001478","FILE":"3702726","APOAPSIS":"541.344","DECAY_DATE":null,"REV_AT_EPOCH":"3346","EPHEMERIS_TYPE":"0","ARG_OF_PERICENTER":"31.2475","BSTAR":"0.00011097000000","OBJECT_NAME":"STARLINK-3932","EPOCH":"2022-12-15T19:27:22.133376","SEMIMAJOR_AXIS":"6917.881","ELEMENT_SET_NO":"999","MEAN_MOTION_DDOT":"0.0000000000000","SITE":"AFWTR","PERIOD":"95.438","RA_OF_ASC_NODE":"15.7970","INCLINATION":"53.2187","PERIAPSIS":"538.147","MEAN_ELEMENT_THEORY":"SGP4","TLE_LINE1":"1 52576U 22051AS  22349.81067284  .00001478  00000-0  11097-3 0  9992","LAUNCH_DATE":"2022-05-13","ECCENTRICITY":"0.00023110","OBJECT_ID":"2022-051AS","RCS_SIZE":"LARGE","MEAN_MOTION":"15.08839894","TIME_SYSTEM":"UTC","MEAN_ANOMALY":"328.8654","CLASSIFICATION_TYPE":"U"},{"MEAN_ANOMALY":"324.2083","CLASSIFICATION_TYPE":"U","TIME_SYSTEM":"UTC","RCS_SIZE":"LARGE","MEAN_MOTION":"15.08841879","TLE_LINE1":"1 52577U 22051AT  22349.53049678  .00002713  00000-0  18850-3 0  9996","ECCENTRICITY":"0.00022610","LAUNCH_DATE":"2022-05-13","OBJECT_ID":"2022-051AT","INCLINATION":"53.2160","MEAN_ELEMENT_THEORY":"SGP4","PERIAPSIS":"538.176","PERIOD":"95.437","RA_OF_ASC_NODE":"32.0762","SITE":"AFWTR","MEAN_MOTION_DDOT":"0.0000000000000","ELEMENT_SET_NO":"999","SEMIMAJOR_AXIS":"6917.875","OBJECT_NAME":"STARLINK-3836","BSTAR":"0.00018850000000","EPOCH":"2022-12-15T12:43:54.921792","EPHEMERIS_TYPE":"0","ARG_OF_PERICENTER":"35.9061","REV_AT_EPOCH":"3321","MEAN_MOTION_DOT":"0.00002713","FILE":"3702025","APOAPSIS":"541.304","DECAY_DATE":null,"OBJECT_TYPE":"PAYLOAD","GP_ID":"220488308","TLE_LINE2":"2 52577  53.2160  32.0762 0002261  35.9061 324.2083 15.08841879 33212","COUNTRY_CODE":"US","CENTER_NAME":"EARTH","REF_FRAME":"TEME","NORAD_CAT_ID":"52577"},{"MEAN_MOTION_DDOT":"0.0000000000000","SITE":"AFWTR","PERIOD":"95.438","RA_OF_ASC_NODE":"31.7585","MEAN_ELEMENT_THEORY":"SGP4","PERIAPSIS":"538.011","INCLINATION":"53.2178","OBJECT_ID":"2022-051AU","ECCENTRICITY":"0.00025100","TLE_LINE1":"1 52578U 22051AU  22349.60041924  .00000676  00000-0  60578-4 0  9992","LAUNCH_DATE":"2022-05-13","RCS_SIZE":"LARGE","MEAN_MOTION":"15.08839476","TIME_SYSTEM":"UTC","CLASSIFICATION_TYPE":"U","MEAN_ANOMALY":"326.9950","NORAD_CAT_ID":"52578","REF_FRAME":"TEME","COUNTRY_CODE":"US","CENTER_NAME":"EARTH","TLE_LINE2":"2 52578  53.2178  31.7585 0002510  33.1199 326.9950 15.08839476 33223","GP_ID":"220528416","OBJECT_TYPE":"PAYLOAD","DECAY_DATE":null,"APOAPSIS":"541.483","FILE":"3702726","MEAN_MOTION_DOT":"0.00000676","ARG_OF_PERICENTER":"33.1199","EPHEMERIS_TYPE":"0","REV_AT_EPOCH":"3322","EPOCH":"2022-12-15T14:24:36.222336","OBJECT_NAME":"STARLINK-3833","BSTAR":"0.00006057800000","ELEMENT_SET_NO":"999","SEMIMAJOR_AXIS":"6917.882"},{"EPHEMERIS_TYPE":"0","ARG_OF_PERICENTER":"30.5756","REV_AT_EPOCH":"3326","FILE":"3702726","MEAN_MOTION_DOT":"-0.00000433","DECAY_DATE":null,"APOAPSIS":"541.370","ELEMENT_SET_NO":"999","SEMIMAJOR_AXIS":"6917.860","OBJECT_NAME":"STARLINK-3893","BSTAR":"-0.00000908990000","EPOCH":"2022-12-15T20:30:14.144832","COUNTRY_CODE":"US","CENTER_NAME":"EARTH","REF_FRAME":"TEME","NORAD_CAT_ID":"52579","OBJECT_TYPE":"PAYLOAD","TLE_LINE2":"2 52579  53.2170  30.6150 0002379  30.5756 329.5375 15.08846818 33267","GP_ID":"220528665","MEAN_MOTION":"15.08846818","RCS_SIZE":"LARGE","TLE_LINE1":"1 52579U 22051AV  22349.85433038 -.00000433  00000-0 -90899-5 0  9994","LAUNCH_DATE":"2022-05-13","ECCENTRICITY":"0.00023790","OBJECT_ID":"2022-051AV","MEAN_ANOMALY":"329.5375","CLASSIFICATION_TYPE":"U","TIME_SYSTEM":"UTC","RA_OF_ASC_NODE":"30.6150","PERIOD":"95.437","MEAN_MOTION_DDOT":"0.0000000000000","SITE":"AFWTR","INCLINATION":"53.2170","PERIAPSIS":"538.079","MEAN_ELEMENT_THEORY":"SGP4"},{"NORAD_CAT_ID":"52580","REF_FRAME":"TEME","COUNTRY_CODE":"US","CENTER_NAME":"EARTH","GP_ID":"220529917","TLE_LINE2":"2 52580  53.2180  30.6025 0002566  28.4425 331.6707 15.08846758 33264","OBJECT_TYPE":"PAYLOAD","DECAY_DATE":null,"APOAPSIS":"541.500","FILE":"3702726","MEAN_MOTION_DOT":"0.00000977","REV_AT_EPOCH":"3326","ARG_OF_PERICENTER":"28.4425","EPHEMERIS_TYPE":"0","EPOCH":"2022-12-15T20:35:32.224704","BSTAR":"0.00007949300000","OBJECT_NAME":"STARLINK-3919","SEMIMAJOR_AXIS":"6917.860","ELEMENT_SET_NO":"999","MEAN_MOTION_DDOT":"0.0000000000000","SITE":"AFWTR","RA_OF_ASC_NODE":"30.6025","PERIOD":"95.437","PERIAPSIS":"537.950","MEAN_ELEMENT_THEORY":"SGP4","INCLINATION":"53.2180","OBJECT_ID":"2022-051AW","TLE_LINE1":"1 52580U 22051AW  22349.85801186  .00000977  00000-0  79493-4 0  9996","LAUNCH_DATE":"2022-05-13","ECCENTRICITY":"0.00025660","RCS_SIZE":"LARGE","MEAN_MOTION":"15.08846758","TIME_SYSTEM":"UTC","CLASSIFICATION_TYPE":"U","MEAN_ANOMALY":"331.6707"},{"NORAD_CAT_ID":"52581","REF_FRAME":"TEME","COUNTRY_CODE":"US","CENTER_NAME":"EARTH","GP_ID":"220488808","TLE_LINE2":"2 52581  53.2191  17.3111 0002541  29.5735 330.5400 15.08839181 33411","OBJECT_TYPE":"PAYLOAD","DECAY_DATE":null,"APOAPSIS":"541.506","FILE":"3702025","MEAN_MOTION_DOT":"0.00001958","REV_AT_EPOCH":"3341","ARG_OF_PERICENTER":"29.5735","EPHEMERIS_TYPE":"0","EPOCH":"2022-12-15T11:23:46.004064","BSTAR":"0.00014108000000","OBJECT_NAME":"STARLINK-3915","SEMIMAJOR_AXIS":"6917.883","ELEMENT_SET_NO":"999","MEAN_MOTION_DDOT":"0.0000000000000","SITE":"AFWTR","RA_OF_ASC_NODE":"17.3111","PERIOD":"95.438","MEAN_ELEMENT_THEORY":"SGP4","PERIAPSIS":"537.990","INCLINATION":"53.2191","OBJECT_ID":"2022-051AX","TLE_LINE1":"1 52581U 22051AX  22349.47483801  .00001958  00000-0  14108-3 0  9996","ECCENTRICITY":"0.00025410","LAUNCH_DATE":"2022-05-13","RCS_SIZE":"LARGE","MEAN_MOTION":"15.08839181","TIME_SYSTEM":"UTC","CLASSIFICATION_TYPE":"U","MEAN_ANOMALY":"330.5400"},{"TLE_LINE2":"2 52582  53.2194  15.7910 0002555  30.3830 329.7310 15.08846657 33466","GP_ID":"220528916","OBJECT_TYPE":"PAYLOAD","NORAD_CAT_ID":"52582","REF_FRAME":"TEME","CENTER_NAME":"EARTH","COUNTRY_CODE":"US","EPOCH":"2022-12-15T19:31:17.242464","BSTAR":"0.00002989100000","OBJECT_NAME":"STARLINK-3886","SEMIMAJOR_AXIS":"6917.860","ELEMENT_SET_NO":"999","APOAPSIS":"541.493","DECAY_DATE":null,"FILE":"3702726","MEAN_MOTION_DOT":"0.00000187","REV_AT_EPOCH":"3346","EPHEMERIS_TYPE":"0","ARG_OF_PERICENTER":"30.3830","MEAN_ELEMENT_THEORY":"SGP4","PERIAPSIS":"537.958","INCLINATION":"53.2194","MEAN_MOTION_DDOT":"0.0000000000000","SITE":"AFWTR","RA_OF_ASC_NODE":"15.7910","PERIOD":"95.437","TIME_SYSTEM":"UTC","CLASSIFICATION_TYPE":"U","MEAN_ANOMALY":"329.7310","OBJECT_ID":"2022-051AY","TLE_LINE1":"1 52582U 22051AY  22349.81339401  .00000187  00000-0  29891-4 0  9990","ECCENTRICITY":"0.00025550","LAUNCH_DATE":"2022-05-13","RCS_SIZE":"LARGE","MEAN_MOTION":"15.08846657"},{"GP_ID":"220489809","TLE_LINE2":"2 52583  53.2176  17.0371 0002656  33.4938 326.6222 15.08839924 33421","OBJECT_TYPE":"PAYLOAD","CENTER_NAME":"EARTH","COUNTRY_CODE":"US","NORAD_CAT_ID":"52583","REF_FRAME":"TEME","ELEMENT_SET_NO":"999","SEMIMAJOR_AXIS":"6917.881","EPOCH":"2022-12-15T12:53:50.696448","OBJECT_NAME":"STARLINK-3895","BSTAR":"0.00006315100000","ARG_OF_PERICENTER":"33.4938","EPHEMERIS_TYPE":"0","REV_AT_EPOCH":"3342","APOAPSIS":"541.583","DECAY_DATE":null,"MEAN_MOTION_DOT":"0.00000717","FILE":"3702025","MEAN_ELEMENT_THEORY":"SGP4","PERIAPSIS":"537.908","INCLINATION":"53.2176","RA_OF_ASC_NODE":"17.0371","PERIOD":"95.438","MEAN_MOTION_DDOT":"0.0000000000000","SITE":"AFWTR","CLASSIFICATION_TYPE":"U","MEAN_ANOMALY":"326.6222","TIME_SYSTEM":"UTC","RCS_SIZE":"LARGE","MEAN_MOTION":"15.08839924","OBJECT_ID":"2022-051AZ","TLE_LINE1":"1 52583U 22051AZ  22349.53739232  .00000717  00000-0  63151-4 0  9992","ECCENTRICITY":"0.00026560","LAUNCH_DATE":"2022-05-13"},{"OBJECT_TYPE":"PAYLOAD","TLE_LINE2":"2 52584  53.2183  15.8157 0003074  29.1077 331.0086 15.08835520 33469","GP_ID":"220529417","REF_FRAME":"TEME","NORAD_CAT_ID":"52584","COUNTRY_CODE":"US","CENTER_NAME":"EARTH","BSTAR":"0.00004221600000","OBJECT_NAME":"STARLINK-3922","EPOCH":"2022-12-15T19:25:59.581632","SEMIMAJOR_AXIS":"6917.894","ELEMENT_SET_NO":"999","FILE":"3702726","MEAN_MOTION_DOT":"0.00000383","APOAPSIS":"541.886","DECAY_DATE":null,"REV_AT_EPOCH":"3346","EPHEMERIS_TYPE":"0","ARG_OF_PERICENTER":"29.1077","INCLINATION":"53.2183","PERIAPSIS":"537.633","MEAN_ELEMENT_THEORY":"SGP4","MEAN_MOTION_DDOT":"0.0000000000000","SITE":"AFWTR","RA_OF_ASC_NODE":"15.8157","PERIOD":"95.438","TIME_SYSTEM":"UTC","MEAN_ANOMALY":"331.0086","CLASSIFICATION_TYPE":"U","TLE_LINE1":"1 52584U 22051BA  22349.80971738  .00000383  00000-0  42216-4 0  9990","ECCENTRICITY":"0.00030740","LAUNCH_DATE":"2022-05-13","OBJECT_ID":"2022-051BA","RCS_SIZE":"LARGE","MEAN_MOTION":"15.08835520"},{"PERIOD":"95.437","RA_OF_ASC_NODE":"15.8834","MEAN_MOTION_DDOT":"0.0000000000000","SITE":"AFWTR","INCLINATION":"53.2184","PERIAPSIS":"537.924","MEAN_ELEMENT_THEORY":"SGP4","MEAN_MOTION":"15.08844107","RCS_SIZE":"LARGE","LAUNCH_DATE":"2022-05-13","TLE_LINE1":"1 52585U 22051BB  22349.79499986  .00002764  00000-0  19167-3 0  9992","ECCENTRICITY":"0.00026150","OBJECT_ID":"2022-051BB","MEAN_ANOMALY":"331.6153","CLASSIFICATION_TYPE":"U","TIME_SYSTEM":"UTC","CENTER_NAME":"EARTH","COUNTRY_CODE":"US","REF_FRAME":"TEME","NORAD_CAT_ID":"52585","OBJECT_TYPE":"PAYLOAD","TLE_LINE2":"2 52585  53.2184  15.8834 0002615  28.4982 331.6153 15.08844107 33462","GP_ID":"220529667","EPHEMERIS_TYPE":"0","ARG_OF_PERICENTER":"28.4982","REV_AT_EPOCH":"3346","FILE":"3702726","MEAN_MOTION_DOT":"0.00002764","DECAY_DATE":null,"APOAPSIS":"541.542","ELEMENT_SET_NO":"999","SEMIMAJOR_AXIS":"6917.868","OBJECT_NAME":"STARLINK-3906","BSTAR":"0.00019167000000","EPOCH":"2022-12-15T19:04:47.987904"}];
